From:	Horizons Ephemeris System <horizons@ssd.jpl.nasa.gov>
Sent:	Friday, December 4, 2020 11:41 AM
Subject:	[Horizons] MAJOR BODY #C(usr={180.,-15.,.600^G}@301)_T(301) (1/1)

 Automated mail xmit by MAIL_REQUEST, PID= 14943 Fri Dec  4 09:41:21 2020
++++++++++++++++++++++++++++++++ (part 1 of 1)  +++++++++++++++++++++++++++++++
*******************************************************************************
 Revised: July 31, 2013             Moon / (Earth)                          301
 
 GEOPHYSICAL DATA (updated 2018-Aug-15):
  Vol. mean radius, km  = 1737.53+-0.03    Mass, x10^22 kg       =    7.349
  Radius (gravity), km  = 1738.0           Surface emissivity    =    0.92
  Radius (IAU), km      = 1737.4           GM, km^3/s^2          = 4902.800066
  Density, g/cm^3       =    3.3437        GM 1-sigma, km^3/s^2  =  +-0.0001  
  V(1,0)                =   +0.21          Surface accel., m/s^2 =    1.62
  Earth/Moon mass ratio = 81.3005690769    Farside crust. thick. = ~80 - 90 km
  Mean crustal density  = 2.97+-.07 g/cm^3 Nearside crust. thick.= 58+-8 km 
  Heat flow, Apollo 15  = 3.1+-.6 mW/m^2   Mean angular diameter = 31'05.2"
  Heat flow, Apollo 17  = 2.2+-.5 mW/m^2   Sid. rot. rate, rad/s = 0.0000026617
  Geometric Albedo      = 0.12             Mean solar day        = 29.5306 d
  Obliquity to orbit    = 6.67 deg         Orbit period          = 27.321582 d
  Semi-major axis, a    = 384400 km        Eccentricity          = 0.05490
  Mean motion, rad/s    = 2.6616995x10^-6  Inclination           = 5.145 deg
  Apsidal period        = 3231.50 d        Nodal period          = 6798.38 d
                                 Perihelion  Aphelion    Mean
  Solar Constant (W/m^2)         1414+-7     1323+-7     1368+-7
  Maximum Planetary IR (W/m^2)   1314        1226        1268
  Minimum Planetary IR (W/m^2)      5.2         5.2         5.2
********************************************************************************
 
 
*******************************************************************************
Ephemeris / MAIL_REQUEST Fri Dec  4 09:41:20 2020 Pasadena, USA  / Horizons
*******************************************************************************
Target body name: Moon (301)                      {source: DE431mx}
Center body name: Moon (301)                      {source: DE431mx}
Center-site name: (user defined site below)
*******************************************************************************
Start time      : A.D. 2020-Jan-01 00:00:00.0000 TDB
Stop  time      : A.D. 2039-Jan-01 00:00:00.0000 TDB
Step-size       : 10000 steps
*******************************************************************************
Center geodetic : 180.000000,-15.000000,0.6000000 {E-lon(deg),Lat(deg),Alt(km)}
Center cylindric: 180.000000,1678.77909,-449.8275 {E-lon(deg),Dxy(km),Dz(km)}
Center pole/equ : IAU_MOON                        {East-longitude positive}
Center radii    : 1737.4 x 1737.4 x 1737.4 km     {Equator, meridian, pole}    
Output units    : KM-S
Output type     : GEOMETRIC cartesian states
Output format   : 3 (position, velocity, LT, range, range-rate)
Reference frame : Ecliptic of J2000.0
*******************************************************************************
JDTDB
   X     Y     Z
   VX    VY    VZ
   LT    RG    RR
*******************************************************************************
$$SOE
2461864.236000001 = A.D. 2028-Apr-02 17:39:50.4001 TDB 
   5.375256828379036E+02 -1.587998442215376E+03  4.582260226254989E+02
   4.240736908808913E-03  1.401071350369982E-03 -1.191680047117586E-04
   5.797343974543884E-03  1.738000000000000E+03 -2.275701683099609E-19
2461864.930000001 = A.D. 2028-Apr-03 10:19:12.0001 TDB 
   7.840336542513915E+02 -1.484091068184659E+03  4.510087918607901E+02
   3.964000995741578E-03  2.057365622357078E-03 -1.210447401521228E-04
   5.797343974543885E-03  1.738000000000000E+03  4.671177138993934E-19
2461865.624000001 = A.D. 2028-Apr-04 02:58:33.6001 TDB 
   1.010886243933724E+03 -1.342318661185966E+03  4.437720289264357E+02
   3.586529946087421E-03  2.661366423430858E-03 -1.198182131031861E-04
   5.797343974543885E-03  1.738000000000000E+03  1.397360682605023E-19
2461866.318000001 = A.D. 2028-Apr-04 19:37:55.2001 TDB 
   1.212318568140626E+03 -1.166284576867058E+03  4.367012423883102E+02
   3.117916209604688E-03  3.197727019395000E-03 -1.155206492728285E-04
   5.797343974543885E-03  1.738000000000000E+03 -6.148387003462099E-19
2461867.012000001 = A.D. 2028-Apr-05 12:17:16.8001 TDB 
   1.383211697880837E+03 -9.604627170253655E+02  4.299776366857544E+02
   2.570067252259476E-03  3.652818939978194E-03 -1.082630346345597E-04
   5.797343974543884E-03  1.738000000000001E+03  3.952534502225635E-19
2461867.706000001 = A.D. 2028-Apr-06 04:56:38.4001 TDB 
   1.519222684101083E+03 -7.300838855999300E+02  4.237734726242437E+02
   1.956903281760730E-03  4.015077981107479E-03 -9.823201662741946E-05
   5.797343974543886E-03  1.738000000000001E+03  1.197737727947162E-20
2461868.400000001 = A.D. 2028-Apr-06 21:36:00.0001 TDB 
   1.616894885459026E+03 -4.810029262307744E+02  4.182476710441767E+02
   1.294003909893114E-03  4.275297869815249E-03 -8.568491891743709E-05
   5.797343974543886E-03  1.738000000000001E+03 -1.038039364220874E-19
2461869.094000001 = A.D. 2028-Apr-07 14:15:21.6001 TDB 
   1.673745798959945E+03 -2.195500099848532E+02  4.135417676360998E+02
   5.982126917024763E-04  4.426864144735013E-03 -7.094304551407619E-05
   5.797343974543886E-03  1.738000000000001E+03  6.587557503709392E-20
2461869.788000001 = A.D. 2028-Apr-08 06:54:43.2001 TDB 
   1.688330163010684E+03  4.763015601014384E+01  4.097763156976839E+02
  -1.127904500575091E-04  4.465922315114195E-03 -5.438346925562684E-05
   5.797343974543884E-03  1.738000000000001E+03  7.585672276998694E-20
2461870.482000001 = A.D. 2028-Apr-08 23:34:04.8001 TDB 
   1.660276728353848E+03  3.137471214577643E+02  4.070478215930067E+02
  -8.209380910967158E-04  4.391476021741413E-03 -3.642951004386124E-05
   5.797343974543886E-03  1.738000000000001E+03 -1.537096750865525E-19
2461871.176000001 = A.D. 2028-Apr-09 16:13:26.4001 TDB 
   1.590297759044260E+03  5.720372058649511E+02  4.054262851432134E+02
  -1.508234095320550E-03  4.205412691780330E-03 -1.754011536300336E-05
   5.797343974543886E-03  1.738000000000001E+03 -2.465343490024575E-19
2461871.870000001 = A.D. 2028-Apr-10 08:52:48.0001 TDB 
   1.480171016361095E+03  8.159353545234953E+02  4.049534041876699E+02
  -2.157210704807749E-03  3.912456011717229E-03  1.801635582509209E-06
   5.797343974543885E-03  1.738000000000000E+03  5.036112852977834E-19
2461872.564000001 = A.D. 2028-Apr-11 01:32:09.6001 TDB 
   1.332694675875874E+03  1.039241975372251E+03  4.056414888993540E+02
  -2.751372343100195E-03  3.520046392394504E-03  2.110066894526357E-05
   5.797343974543886E-03  1.738000000000001E+03 -1.996229546578603E-19
2461873.258000001 = A.D. 2028-Apr-11 18:11:31.2001 TDB 
   1.151616314279230E+03  1.236280519866750E+03  4.074731167622252E+02
  -3.275614873050555E-03  3.038152421258042E-03  3.986243912838588E-05
   5.797343974543885E-03  1.738000000000000E+03 -2.335588569496967E-19
2461873.952000001 = A.D. 2028-Apr-12 10:50:52.8001 TDB 
   9.415377606838823E+02  1.402041803464772E+03  4.104015430570810E+02
  -3.716609662132681E-03  2.479018044082158E-03  5.760555649406065E-05
   5.797343974543885E-03  1.738000000000001E+03 -9.342354277987865E-19
2461874.646000001 = A.D. 2028-Apr-13 03:30:14.4001 TDB 
   7.077982205056011E+02  1.532311395189161E+03  4.143518640268847E+02
  -4.063142687716739E-03  1.856851848611941E-03  7.387421145553497E-05
   5.797343974543886E-03  1.738000000000001E+03  1.716757410057599E-19
2461875.340000001 = A.D. 2028-Apr-13 20:09:36.0001 TDB 
   4.563386330298570E+02  1.623776832937537E+03  4.192229106570709E+02
  -4.306400041374929E-03  1.187466295111446E-03  8.825006297159170E-05
   5.797343974543885E-03  1.738000000000000E+03  7.186426367682974E-20
2461876.034000001 = A.D. 2028-Apr-14 12:48:57.6001 TDB 
   1.935507026364366E+02  1.674111930943021E+03  4.248898306422184E+02
  -4.440192536836697E-03  4.878760179779611E-04  1.003632465466945E-04
   5.797343974543886E-03  1.738000000000001E+03  9.981147732893017E-20
2461876.728000001 = A.D. 2028-Apr-15 05:28:19.2001 TDB 
  -7.388556405203526E+01  1.682036025705781E+03  4.312072954538386E+02
  -4.461113659260304E-03 -2.241346242384026E-04  1.099021608909865E-04
   5.797343974543885E-03  1.738000000000000E+03  5.988688639735811E-20
2461877.422000001 = A.D. 2028-Apr-15 22:07:40.8001 TDB 
  -3.391716871429575E+02  1.647346642267055E+03  4.380132496307164E+02
  -4.368626777026591E-03 -9.304637728500030E-04  1.166217175773689E-04
   5.797343974543885E-03  1.738000000000001E+03  0.000000000000000E+00
2461878.116000001 = A.D. 2028-Apr-16 14:47:02.4001 TDB 
  -5.955635893205421E+02  1.570924738096816E+03  4.451331017921303E+02
  -4.165079330956351E-03 -1.613152564138648E-03  1.203497851875418E-04
   5.797343974543885E-03  1.738000000000000E+03  4.751026320857078E-19
2461878.810000001 = A.D. 2028-Apr-17 07:26:24.0001 TDB 
  -8.365431179221123E+02  1.454712380105496E+03  4.523842426797781E+02
  -3.855643575664342E-03 -2.254842158634244E-03  1.209916257078133E-04
   5.797343974543885E-03  1.738000000000001E+03 -4.391705002472928E-19
2461879.504000001 = A.D. 2028-Apr-18 00:05:45.6001 TDB 
  -1.055983843376661E+03  1.301663413594427E+03  4.595807657389074E+02
  -3.448185326801329E-03 -2.839215633523609E-03  1.185322003298911E-04
   5.797343974543886E-03  1.738000000000000E+03 -5.349895184830658E-19
2461880.198000001 = A.D. 2028-Apr-18 16:45:07.2001 TDB 
  -1.248306907099744E+03  1.115668372226285E+03  4.665382609186774E+02
  -2.953064017492171E-03 -3.351413435286741E-03  1.130363065113267E-04
   5.797343974543885E-03  1.738000000000001E+03  6.427859139983103E-19
